[{"OBJECT_NAME":"BRITE-PL2 (HEWELIUSZ)","OBJECT_ID":"2014-049B","EPOCH":"2026-03-09T20:58:34.162464","MEAN_MOTION":14.94186201,"ECCENTRICITY":0.00154454,"INCLINATION":97.8982,"RA_OF_ASC_NODE":180.2053,"ARG_OF_PERICENTER":80.5248,"MEAN_ANOMALY":279.7716,"EPHEMERIS_TYPE":0,"CLASSIFICATION_TYPE":"U","NORAD_CAT_ID":40119,"ELEMENT_SET_NO":999,"REV_AT_EPOCH":62661,"BSTAR":0.00026097212,"MEAN_MOTION_DOT":2.742e-5,"MEAN_MOTION_DDOT":0},{"OBJECT_NAME":"STARLINK-34499","OBJECT_ID":"2025-142P","EPOCH":"2026-03-09T21:26:47.282784","MEAN_MOTION":14.98335104,"ECCENTRICITY":0.00027625,"INCLINATION":70.0016,"RA_OF_ASC_NODE":313.8245,"ARG_OF_PERICENTER":269.3887,"MEAN_ANOMALY":90.6956,"EPHEMERIS_TYPE":0,"CLASSIFICATION_TYPE":"U","NORAD_CAT_ID":64709,"ELEMENT_SET_NO":999,"REV_AT_EPOCH":3949,"BSTAR":0.00021482028,"MEAN_MOTION_DOT":2.471e-5,"MEAN_MOTION_DDOT":0}]
